SHIJIAN-6 05A (SJ-6 05A)
1 49961U 21122A   26068.88345882  .00003299  00000+0  27617-3 0  9993
2 49961  97.4012  42.3306 0003221  76.6317 283.5266 14.99085264233873
STARLINK-5499           
1 55764U 23028Z   26068.84876505 -.00000074  00000+0  16022-5 0  9994
2 55764  70.0001 224.1861 0002514 277.4306  82.6567 14.98331604166558
